DONGPO 01               
1 53453U 22098K   26129.52298809  .00059508  00000+0  56977-3 0  9997
2 53453  97.5534 258.2035 0000892 148.6543 211.4770 15.66503087208698
STARLINK-4400           
1 53468U 22099D   26129.30027510  .00005963  00000+0  41727-3 0  9992
2 53468  97.5163 249.7535 0000564  75.1874 284.9415 15.05627824205090
STARLINK-4621           
1 53676U 22105AE  26129.23658642 -.00002387  00000+0 -16130-3 0  9998
2 53676  97.5172   9.7005 0003073  68.0357 292.1196 15.05657302202348
SHERPA-LTC2             
1 53754U 22107BG  26129.41721472  .00005196  00000+0  26738-3 0  9993
2 53754  53.2342  24.3993 0397915 117.7277 246.4651 14.69151322196841
CENTISPACE-1 S3         
1 53757U 22108A   26129.49275617  .00000280  00000+0  94453-4 0  9999
2 53757  53.5326 215.2584 0008338 236.1796 123.8386 14.61216805195871
CENTISPACE-1 S4         
1 53758U 22108B   26129.49495130  .00000405  00000+0  11802-3 0  9999
2 53758  53.5300 212.9493 0008147 221.8868 138.1485 14.61888957195902
BLUEWALKER-3            
1 53807U 22111AL  26128.60533262  .00005151  00000+0  14692-3 0  9992
2 53807  53.2280 219.7231 0007283  60.1319 300.0409 15.37805521204111
YUNHAI-1 03             
1 53877U 22115A   26129.49715166  .00000294  00000+0  12400-3 0  9994
2 53877  98.5538 128.1370 0005279 148.0651 212.0854 14.32691109189972
CENTISPACE-1 S5         
1 54020U 22126A   26129.48020047  .00000604  00000+0  15374-3 0  9991
2 54020  55.0005   7.8444 0012021 354.4524   5.6335 14.62943315191379
CENTISPACE-1 S6         
1 54021U 22126B   26129.45441544  .00000497  00000+0  13483-3 0  9997
2 54021  55.0008   9.6350 0013858 353.2722   6.8083 14.62234133191335
OTB-3-GAZELLE           
1 54023U 22127A   26129.49764314  .00000111  00000+0  46414-4 0  9991
2 54023  98.3939 121.7937 0012133 309.2568  50.7545 14.42660347188785
ASO-S                   
1 54029U 22129A   26129.52714470  .00000126  00000+0  42146-4 0  9995
2 54029  98.2758 135.1609 0013648 206.6144 153.4352 14.52042745189815
HJ-2E                   
1 54035U 22132A   26129.49543521  .00006261  00000+0  27753-3 0  9991
2 54035  97.3814 134.5875 0022034 141.1699 219.1125 15.21742334198535
COSMOS 2561             
1 54109U 22137A   26129.32708328  .00011091  00000+0  19398-3 0  9991
2 54109  96.9221 189.7997 0010667 159.5368 200.6314 15.50726985200328
GONETS-M 23             
1 54150U 22139A   26129.46325917  .00000028  00000+0  13130-3 0  9999
2 54150  82.5102  12.3605 0020898 308.5418  51.3789 12.42889094160836
GONETS-M 24             
1 54151U 22139B   26129.51688284  .00000031  00000+0  15210-3 0  9990
2 54151  82.5001  11.4136 0016295 319.9071  40.0805 12.42889671160847
GONETS-M 25             
1 54152U 22139C   26129.50323083  .00000016  00000+0  46617-4 0  9992
2 54152  82.5079  12.0874 0020179 317.6778  42.2744 12.42888957160846
SKIF-D                  
1 54153U 22139D   26127.28584473  .00000036  00000+0  00000+0 0  9991
2 54153  89.9559  96.6802 0007360 215.1989 144.7889  5.00439105 62069
MATS                    
1 54227U 22147A   26129.49236837  .00003043  00000+0  21795-3 0  9994
2 54227  97.6825 131.2645 0011830 337.6748  22.3962 15.05111843191949
JILIN-1 GAOFEN 03D54    
1 54254U 22155D   26129.34960064  .00122982  00000+0  59787-3 0  9999
2 54254  97.6094 277.8745 0002379 172.1569 187.9737 15.82083291194138
EOS-6 (OCEANSAT-3)      
1 54361U 22158A   26129.50851659  .00000207  00000+0  68776-4 0  9992
2 54361  98.3524 228.2204 0002274  92.3155 267.8298 14.47018008182244
DONGPO 09               
1 54685U 22167D   26129.51471058  .00009124  00000+0  26700-3 0  9990
2 54685  97.6880 298.8296 0001263 241.7375 118.3741 15.35491238189513
DONGPO 08               
1 54686U 22167E   26129.55920326  .00007377  00000+0  23462-3 0  9992
2 54686  97.6840 296.2345 0007053 309.1070  50.9544 15.32899377189404
2022-167F               
1 54687U 22167F   26129.52250928  .00094194  00000+0  49672-3 0  9998
2 54687  97.6178 313.0648 0003315 186.3247 173.7979 15.80384841190700
DONGPO 10               
1 54689U 22167H   26129.52058604  .00008436  00000+0  26159-3 0  9996
2 54689  97.6924 298.0548 0003974 242.5454 117.5383 15.33677766189430
JILIN-1 GAOFEN 03D48    
1 54695U 22167P   26129.53709778  .00008882  00000+0  26898-3 0  9994
2 54695  97.6857 297.4384 0005229 248.4280 111.6405 15.34408150189463
STAR VIBE               
1 55009U 23001A   26129.49526797  .00011244  00000+0  26945-3 0  9994
2 55009  97.3190 193.8304 0004414 242.8556 117.2241 15.41573835186266
BRO-8                   
1 55011U 23001C   26129.51698735  .00023395  00000+0  46767-3 0  9996
2 55011  97.3235 194.2101 0004696 248.2774 111.7976 15.46790017186221
CONNECTA T1.2           
1 55012U 23001D   26129.15821953  .00030318  00000+0  58040-3 0  9997
2 55012  97.3297 199.2364 0005659 221.0537 139.0288 15.47988520186501
BIRKELAND               
1 55015U 23001G   26129.47768135  .00006483  00000+0  16781-3 0  9999
2 55015  97.3361 197.3658 0005455 233.4791 126.5953 15.39402199186395
