OBJECT_NAME,OBJECT_ID,EPOCH,MEAN_MOTION,ECCENTRICITY,INCLINATION,RA_OF_ASC_NODE,ARG_OF_PERICENTER,MEAN_ANOMALY,EPHEMERIS_TYPE,CLASSIFICATION_TYPE,NORAD_CAT_ID,ELEMENT_SET_NO,REV_AT_EPOCH,BSTAR,MEAN_MOTION_DOT,MEAN_MOTION_DDOT
DONGPO 01,2022-098K,2026-05-09T12:33:06.170976,15.66503087,.0000892,97.5534,258.2035,148.6543,211.4770,0,U,53453,999,20869,.56977E-3,.59508E-3,0
STARLINK-4400,2022-099D,2026-05-09T07:12:23.768640,15.05627824,.0000564,97.5163,249.7535,75.1874,284.9415,0,U,53468,999,20509,.41727E-3,.5963E-4,0
STARLINK-4621,2022-105AE,2026-05-09T05:40:41.066688,15.05657302,.0003073,97.5172,9.7005,68.0357,292.1196,0,U,53676,999,20234,-.1613E-3,-.2387E-4,0
SHERPA-LTC2,2022-107BG,2026-05-09T10:00:47.351808,14.69151322,.0397915,53.2342,24.3993,117.7277,246.4651,0,U,53754,999,19684,.26738E-3,.5196E-4,0
CENTISPACE-1 S3,2022-108A,2026-05-09T11:49:34.133088,14.61216805,.0008338,53.5326,215.2584,236.1796,123.8386,0,U,53757,999,19587,.94453E-4,.28E-5,0
CENTISPACE-1 S4,2022-108B,2026-05-09T11:52:43.792320,14.61888957,.0008147,53.5300,212.9493,221.8868,138.1485,0,U,53758,999,19590,.11802E-3,.405E-5,0
BLUEWALKER-3,2022-111AL,2026-05-08T14:31:40.738368,15.37805521,.00072836,53.2280,219.7231,60.1319,300.0409,0,U,53807,999,20411,.14692079E-3,.5151E-4,0
YUNHAI-1 03,2022-115A,2026-05-09T11:55:53.903424,14.32691109,.0005279,98.5538,128.1370,148.0651,212.0854,0,U,53877,999,18997,.124E-3,.294E-5,0
CENTISPACE-1 S5,2022-126A,2026-05-09T11:31:29.320608,14.62943315,.0012021,55.0005,7.8444,354.4524,5.6335,0,U,54020,999,19137,.15374E-3,.604E-5,0
CENTISPACE-1 S6,2022-126B,2026-05-09T10:54:21.494016,14.62234133,.0013858,55.0008,9.6350,353.2722,6.8083,0,U,54021,999,19133,.13483E-3,.497E-5,0
OTB-3-GAZELLE,2022-127A,2026-05-09T11:56:36.367296,14.42660347,.0012133,98.3939,121.7937,309.2568,50.7545,0,U,54023,999,18878,.46414E-4,.111E-5,0
ASO-S,2022-129A,2026-05-09T12:39:05.302080,14.52042745,.0013648,98.2758,135.1609,206.6144,153.4352,0,U,54029,999,18981,.42146E-4,.126E-5,0
HJ-2E,2022-132A,2026-05-09T11:53:25.602144,15.21742334,.0022034,97.3814,134.5875,141.1699,219.1125,0,U,54035,999,19853,.27753E-3,.6261E-4,0
COSMOS 2561,2022-137A,2026-05-09T07:50:59.995392,15.50726985,.0010667,96.9221,189.7997,159.5368,200.6314,0,U,54109,999,20032,.19398E-3,.11091E-3,0
GONETS-M 23,2022-139A,2026-05-09T11:07:05.592288,12.42889094,.0020898,82.5102,12.3605,308.5418,51.3789,0,U,54150,999,16083,.1313E-3,.28E-6,0
GONETS-M 24,2022-139B,2026-05-09T12:24:18.677376,12.42889671,.0016295,82.5001,11.4136,319.9071,40.0805,0,U,54151,999,16084,.1521E-3,.31E-6,0
GONETS-M 25,2022-139C,2026-05-09T12:04:39.143712,12.42888957,.0020179,82.5079,12.0874,317.6778,42.2744,0,U,54152,999,16084,.46617E-4,.16E-6,0
SKIF-D,2022-139D,2026-05-07T06:51:36.984672,5.00439105,.00073606,89.9559,96.6802,215.1989,144.7889,0,U,54153,999,6206,0,.36E-6,0
MATS,2022-147A,2026-05-09T11:49:00.627168,15.05111843,.001183,97.6825,131.2645,337.6748,22.3962,0,U,54227,999,19194,.21795E-3,.3043E-4,0
JILIN-1 GAOFEN 03D54,2022-155D,2026-05-09T08:23:25.495296,15.82083291,.0002379,97.6094,277.8745,172.1569,187.9737,0,U,54254,999,19413,.59787E-3,.122982E-2,0
EOS-6 (OCEANSAT-3),2022-158A,2026-05-09T12:12:15.833376,14.47018008,.0002274,98.3524,228.2204,92.3155,267.8298,0,U,54361,999,18224,.68776E-4,.207E-5,0
DONGPO 09,2022-167D,2026-05-09T12:21:10.994112,15.35491238,.0001263,97.6880,298.8296,241.7375,118.3741,0,U,54685,999,18951,.267E-3,.9124E-4,0
DONGPO 08,2022-167E,2026-05-09T13:25:15.161664,15.32899377,.0007053,97.6840,296.2345,309.1070,50.9544,0,U,54686,999,18940,.23462E-3,.7377E-4,0
2022-167F,2022-167F,2026-05-09T12:32:24.801792,15.80384841,.0003315,97.6178,313.0648,186.3247,173.7979,0,U,54687,999,19070,.49672E-3,.94194E-3,0
DONGPO 10,2022-167H,2026-05-09T12:29:38.633856,15.33677766,.0003974,97.6924,298.0548,242.5454,117.5383,0,U,54689,999,18943,.26159E-3,.8436E-4,0
JILIN-1 GAOFEN 03D48,2022-167P,2026-05-09T12:53:25.248192,15.34408150,.0005229,97.6857,297.4384,248.4280,111.6405,0,U,54695,999,18946,.26898E-3,.8882E-4,0
STAR VIBE,2023-001A,2026-05-09T11:53:11.152608,15.41573835,.0004414,97.3190,193.8304,242.8556,117.2241,0,U,55009,999,18626,.26945E-3,.11244E-3,0
BRO-8,2023-001C,2026-05-09T12:24:27.707040,15.46790017,.0004696,97.3235,194.2101,248.2774,111.7976,0,U,55011,999,18622,.46767E-3,.23395E-3,0
CONNECTA T1.2,2023-001D,2026-05-09T03:47:50.167392,15.47988520,.0005659,97.3297,199.2364,221.0537,139.0288,0,U,55012,999,18650,.5804E-3,.30318E-3,0
BIRKELAND,2023-001G,2026-05-09T11:27:51.668640,15.39402199,.0005455,97.3361,197.3658,233.4791,126.5953,0,U,55015,999,18639,.16781E-3,.6483E-4,0
